{
  "type": "FeatureCollection",
  "features": [
    {
      "type": "Feature",
      "properties": {
        "norad_id": 37846,
        "name": "GSAT0101 (GALILEO-PFM)",
        "group": "galileo",
        "lat": 54.96870812123702,
        "lon": 54.464707570761355,
        "alt_km": 23220.43561046148,
        "timestamp": "2025-12-14T18:52:55.766158+00:00",
        "meta_object_name": "GSAT0101 (GALILEO-PFM)",
        "meta_object_id": "2011-060A",
        "meta_epoch": "2025-12-12T21:37:17.093856",
        "meta_mean_motion": 1.70475751,
        "meta_eccentricity": 0.00030259,
        "meta_inclination": 57.0527,
        "meta_ra_of_asc_node": 346.8154,
        "meta_arg_of_pericenter": 315.3436,
        "meta_mean_anomaly": 44.6506,
        "meta_ephemeris_type": 0,
        "meta_classification_type": "U",
        "meta_norad_cat_id": 37846,
        "meta_element_set_no": 999,
        "meta_rev_at_epoch": 8794,
        "meta_bstar": 0,
        "meta_mean_motion_dot": -8.7e-07,
        "meta_mean_motion_ddot": 0,
        "tle_line1": "1 37846U 11060A   25346.90089229 -.00000087  00000+0  00000+0 0  9999",
        "tle_line2": "2 37846  57.0527 346.8154 0003025 315.3436  44.6506  1.70475751 87942"
      },
      "geometry": {
        "type": "Point",
        "coordinates": [
          54.464707570761355,
          54.96870812123702
        ]
      }
    },
    {
      "type": "Feature",
      "properties": {
        "norad_id": 37847,
        "name": "GSAT0102 (GALILEO-FM2)",
        "group": "galileo",
        "lat": 44.79512125369274,
        "lon": 126.67662079557228,
        "alt_km": 23231.283951285925,
        "timestamp": "2025-12-14T18:52:55.766181+00:00",
        "meta_object_name": "GSAT0102 (GALILEO-FM2)",
        "meta_object_id": "2011-060B",
        "meta_epoch": "2025-12-12T05:47:25.345248",
        "meta_mean_motion": 1.70475905,
        "meta_eccentricity": 0.00049802,
        "meta_inclination": 57.0536,
        "meta_ra_of_asc_node": 346.8337,
        "meta_arg_of_pericenter": 309.4177,
        "meta_mean_anomaly": 51.2149,
        "meta_ephemeris_type": 0,
        "meta_classification_type": "U",
        "meta_norad_cat_id": 37847,
        "meta_element_set_no": 999,
        "meta_rev_at_epoch": 8794,
        "meta_bstar": 0,
        "meta_mean_motion_dot": -8.7e-07,
        "meta_mean_motion_ddot": 0,
        "tle_line1": "1 37847U 11060B   25346.24126557 -.00000087  00000+0  00000+0 0  9993",
        "tle_line2": "2 37847  57.0536 346.8337 0004980 309.4177  51.2149  1.70475905 87941"
      },
      "geometry": {
        "type": "Point",
        "coordinates": [
          126.67662079557228,
          44.79512125369274
        ]
      }
    },
    {
      "type": "Feature",
      "properties": {
        "norad_id": 38857,
        "name": "GSAT0103 (GALILEO-FM3)",
        "group": "galileo",
        "lat": 41.13129383171491,
        "lon": 143.16231711628066,
        "alt_km": 23223.701393692012,
        "timestamp": "2025-12-14T18:52:55.766196+00:00",
        "meta_object_name": "GSAT0103 (GALILEO-FM3)",
        "meta_object_id": "2012-055A",
        "meta_epoch": "2025-12-13T12:39:44.093088",
        "meta_mean_motion": 1.70473367,
        "meta_eccentricity": 0.00026827,
        "meta_inclination": 55.6929,
        "meta_ra_of_asc_node": 106.6448,
        "meta_arg_of_pericenter": 268.8486,
        "meta_mean_anomaly": 91.0883,
        "meta_ephemeris_type": 0,
        "meta_classification_type": "U",
        "meta_norad_cat_id": 38857,
        "meta_element_set_no": 999,
        "meta_rev_at_epoch": 8184,
        "meta_bstar": 0,
        "meta_mean_motion_dot": 1e-08,
        "meta_mean_motion_ddot": 0,
        "tle_line1": "1 38857U 12055A   25347.52759367  .00000001  00000+0  00000+0 0  9998",
        "tle_line2": "2 38857  55.6929 106.6448 0002682 268.8486  91.0883  1.70473367 81846"
      },
      "geometry": {
        "type": "Point",
        "coordinates": [
          143.16231711628066,
          41.13129383171491
        ]
      }
    },
    {
      "type": "Feature",
      "properties": {
        "norad_id": 40128,
        "name": "GSAT0201 (GALILEO 5)",
        "group": "galileo",
        "lat": 13.927555530167682,
        "lon": 88.55479106669769,
        "alt_km": 17041.782759716596,
        "timestamp": "2025-12-14T18:52:55.766209+00:00",
        "meta_object_name": "GSAT0201 (GALILEO 5)",
        "meta_object_id": "2014-050A",
        "meta_epoch": "2025-12-13T11:12:06.167520",
        "meta_mean_motion": 1.85519648,
        "meta_eccentricity": 0.16479838,
        "meta_inclination": 49.0758,
        "meta_ra_of_asc_node": 281.0339,
        "meta_arg_of_pericenter": 172.3077,
        "meta_mean_anomaly": 190.6076,
        "meta_ephemeris_type": 0,
        "meta_classification_type": "U",
        "meta_norad_cat_id": 40128,
        "meta_element_set_no": 999,
        "meta_rev_at_epoch": 7487,
        "meta_bstar": 0,
        "meta_mean_motion_dot": -1e-06,
        "meta_mean_motion_ddot": 0,
        "tle_line1": "1 40128U 14050A   25347.46673805 -.00000100  00000+0  00000+0 0  9995",
        "tle_line2": "2 40128  49.0758 281.0339 1647983 172.3077 190.6076  1.85519648 74873"
      },
      "geometry": {
        "type": "Point",
        "coordinates": [
          88.55479106669769,
          13.927555530167682
        ]
      }
    },
    {
      "type": "Feature",
      "properties": {
        "norad_id": 40129,
        "name": "GSAT0202 (GALILEO 6)",
        "group": "galileo",
        "lat": -5.206499903302246,
        "lon": -84.47954583767488,
        "alt_km": 26217.636854259323,
        "timestamp": "2025-12-14T18:52:55.766222+00:00",
        "meta_object_name": "GSAT0202 (GALILEO 6)",
        "meta_object_id": "2014-050B",
        "meta_epoch": "2025-12-11T13:36:31.827456",
        "meta_mean_motion": 1.85520366,
        "meta_eccentricity": 0.16485158,
        "meta_inclination": 49.0938,
        "meta_ra_of_asc_node": 280.195,
        "meta_arg_of_pericenter": 172.988,
        "meta_mean_anomaly": 189.677,
        "meta_ephemeris_type": 0,
        "meta_classification_type": "U",
        "meta_norad_cat_id": 40129,
        "meta_element_set_no": 999,
        "meta_rev_at_epoch": 7700,
        "meta_bstar": 0,
        "meta_mean_motion_dot": -9.2e-07,
        "meta_mean_motion_ddot": 0,
        "tle_line1": "1 40129U 14050B   25345.56703504 -.00000092  00000+0  00000+0 0  9995",
        "tle_line2": "2 40129  49.0938 280.1950 1648515 172.9880 189.6770  1.85520366 77009"
      },
      "geometry": {
        "type": "Point",
        "coordinates": [
          -84.47954583767488,
          -5.206499903302246
        ]
      }
    },
    {
      "type": "Feature",
      "properties": {
        "norad_id": 40544,
        "name": "GSAT0203 (GALILEO 7)",
        "group": "galileo",
        "lat": -27.508361029379106,
        "lon": -173.47359738827743,
        "alt_km": 23215.615845215292,
        "timestamp": "2025-12-14T18:52:55.766234+00:00",
        "meta_object_name": "GSAT0203 (GALILEO 7)",
        "meta_object_id": "2015-017A",
        "meta_epoch": "2025-12-13T06:22:25.500288",
        "meta_mean_motion": 1.70476024,
        "meta_eccentricity": 0.00064981,
        "meta_inclination": 56.8461,
        "meta_ra_of_asc_node": 346.6655,
        "meta_arg_of_pericenter": 272.4956,
        "meta_mean_anomaly": 87.4484,
        "meta_ephemeris_type": 0,
        "meta_classification_type": "U",
        "meta_norad_cat_id": 40544,
        "meta_element_set_no": 999,
        "meta_rev_at_epoch": 6603,
        "meta_bstar": 0,
        "meta_mean_motion_dot": -8.7e-07,
        "meta_mean_motion_ddot": 0,
        "tle_line1": "1 40544U 15017A   25347.26557292 -.00000087  00000+0  00000+0 0  9994",
        "tle_line2": "2 40544  56.8461 346.6655 0006498 272.4956  87.4484  1.70476024 66037"
      },
      "geometry": {
        "type": "Point",
        "coordinates": [
          -173.47359738827743,
          -27.508361029379106
        ]
      }
    },
    {
      "type": "Feature",
      "properties": {
        "norad_id": 40545,
        "name": "GSAT0204 (GALILEO 8)",
        "group": "galileo",
        "lat": 44.43930786231315,
        "lon": 26.500308257034096,
        "alt_km": 23233.361059538453,
        "timestamp": "2025-12-14T18:52:55.766246+00:00",
        "meta_object_name": "GSAT0204 (GALILEO 8)",
        "meta_object_id": "2015-017B",
        "meta_epoch": "2025-12-11T04:11:34.346112",
        "meta_mean_motion": 1.70475574,
        "meta_eccentricity": 0.0006249,
        "meta_inclination": 56.853,
        "meta_ra_of_asc_node": 346.7403,
        "meta_arg_of_pericenter": 262.765,
        "meta_mean_anomaly": 97.1808,
        "meta_ephemeris_type": 0,
        "meta_classification_type": "U",
        "meta_norad_cat_id": 40545,
        "meta_element_set_no": 999,
        "meta_rev_at_epoch": 2904,
        "meta_bstar": 0,
        "meta_mean_motion_dot": -8.8e-07,
        "meta_mean_motion_ddot": 0,
        "tle_line1": "1 40545U 15017B   25345.17470308 -.00000088  00000+0  00000+0 0  9996",
        "tle_line2": "2 40545  56.8530 346.7403 0006249 262.7650  97.1808  1.70475574 29041"
      },
      "geometry": {
        "type": "Point",
        "coordinates": [
          26.500308257034096,
          44.43930786231315
        ]
      }
    }
  ]
}